STARLINK-5113           
1 53988U 22125AA  22287.83334491 -.00052992  00000+0 -37495-3 0  9990
2 53988  53.2173  47.6890 0001018  80.7693 209.3256 15.73236760  1304
STARLINK-5115           
1 53989U 22125AB  22287.83334491 -.00026417  00000+0 -18421-3 0  9992
2 53989  53.2173  47.6912 0001943  28.7523 260.1582 15.73220155  1309
STARLINK-5075           
1 53990U 22125AC  22288.16667824  .00003308  00000+0  27979-4 0  9991
2 53990  53.2173  46.0337 0001705  33.3867 347.4480 15.73202004  1831
STARLINK-5118           
1 53991U 22125AD  22287.83334491 -.00553217  00000+0 -24254-2 0  9998
2 53991  53.2172  47.4576 0007444 270.0163 140.4430 15.85160015  1302
STARLINK-5108           
1 53992U 22125AE  22288.16667824  .00003308  00000+0  27978-4 0  9992
2 53992  53.2173  46.0312 0001633  35.7396 346.2873 15.73202005  1833
STARLINK-5121           
1 53993U 22125AF  22288.16667824  .00003296  00000+0  27888-4 0  9999
2 53993  53.2173  46.0347 0001425  44.3002 335.9383 15.73202012  1830
STARLINK-5125           
1 53994U 22125AG  22287.91667824 -.00071190  00000+0 -50605-3 0  9994
2 53994  53.2171  47.2651 0001727  38.8788   8.8104 15.73247404  1307
STARLINK-5097           
1 53995U 22125AH  22288.16667824  .00003304  00000+0  27947-4 0  9997
2 53995  53.2173  46.0298 0001515  40.2319 342.3911 15.73202008  1837
STARLINK-5131           
1 53996U 22125AJ  22288.16667824  .00003318  00000+0  28047-4 0  9995
2 53996  53.2173  46.0252 0001678  34.2756 350.7318 15.73202002  1834
STARLINK-5130           
1 53997U 22125AK  22288.16667824  .00003314  00000+0  28021-4 0  9994
2 53997  53.2173  46.0286 0001694  33.7284 349.4907 15.73202002  1839
STARLINK-5128           
1 53998U 22125AL  22288.16667824  .00003307  00000+0  27969-4 0  9997
2 53998  53.2173  46.0227 0001458  42.7789 343.4208 15.73202009  1838
STARLINK-5079           
1 53999U 22125AM  22288.16667824  .00003311  00000+0  27998-4 0  9995
2 53999  53.2173  46.0274 0001605  36.7349 347.0804 15.73202005  1838
STARLINK-5088           
1 54000U 22125AN  22288.16667824  .00003329  00000+0  28131-4 0  9998
2 54000  53.2173  46.0215 0001787  31.0071 355.7886 15.73201996  1832
STARLINK-5105           
1 54001U 22125AP  22288.16667824  .00003324  00000+0  28092-4 0  9990
2 54001  53.2173  46.0201 0001679  34.2408 353.1511 15.73202000  1820
STARLINK-5109           
1 54002U 22125AQ  22288.16667824  .00138199  00000+0  83106-3 0  9996
2 54002  53.2249  45.9994 0002108 344.9896  56.1268 15.76828902  1829
STARLINK-5114           
1 54003U 22125AR  22288.16667824  .00003323  00000+0  28087-4 0  9995
2 54003  53.2173  46.0238 0001745  32.2227 353.3808 15.73201999  1820
STARLINK-5129           
1 54004U 22125AS  22288.16667824  .00003318  00000+0  28048-4 0  9997
2 54004  53.2173  46.0166 0001532  39.5757 349.6044 15.73202005  1822
STARLINK-5135           
1 54005U 22125AT  22288.16667824  .00003324  00000+0  28090-4 0  9992
2 54005  53.2173  46.0189 0001653  35.1071 352.8809 15.73202001  1824
STARLINK-5096           
1 54006U 22125AU  22288.16667824  .00004959  00000+0  39730-4 0  9991
2 54006  53.2173  46.0106 0001536  42.5873 349.5742 15.73200760  1825
STARLINK-5132           
1 54007U 22125AV  22288.16667824  .00003332  00000+0  28152-4 0  9992
2 54007  53.2173  46.0153 0001705  33.4614 356.3149 15.73201998  1829
STARLINK-5145           
1 54008U 22125AW  22288.16667824  .00178566  00000+0  91238-3 0  9999
2 54008  53.2252  45.9442 0001700  14.4148  53.8087 15.80324267  1826
STARLINK-5099           
1 54009U 22125AX  22288.16667824  .00003335  00000+0  28173-4 0  9990
2 54009  53.2173  46.0129 0001698  33.6834 357.2851 15.73201998  1821
STARLINK-5127           
1 54010U 22125AY  22288.16667824  .00160568  00000+0  88911-3 0  9999
2 54010  53.2253  45.9715 0002281  42.9489  12.0262 15.78605716  1822
STARLINK-5124           
1 54011U 22125AZ  22288.16667824  .00003326  00000+0  28107-4 0  9990
2 54011  53.2173  46.0141 0001603  36.8607 353.5117 15.73202002  1828
STARLINK-5126           
1 54012U 22125BA  22288.16667824  .00009974  00000+0  75404-4 0  9998
2 54012  53.2173  46.0058 0001659  33.9246   0.6231 15.73197513  1821
STARLINK-5098           
1 54013U 22125BB  22288.16667824  .00006262  00000+0  48999-4 0  9995
2 54013  53.2173  46.0080 0001372  38.8419 354.5124 15.73199748  1829
STARLINK-5116           
1 54014U 22125BC  22288.16667824  .00009933  00000+0  75115-4 0  9994
2 54014  53.2173  46.0070 0001656  30.0384   3.9131 15.73197589  1823
STARLINK-5055           
1 54015U 22125BD  22288.16667824  .00001099  00000+0  12249-4 0  9999
2 54015  53.2173  46.0031 0001540  45.4409 350.2971 15.73202464  1820
FALCON 9 DEB            
1 54016U 22125BE  22287.75064464  .00329423  51839-4  10043-2 0  9998
2 54016  53.2334  47.7445 0009264 321.6379  38.3990 15.91437864  1710
FALCON 9 DEB            
1 54017U 22125BF  22287.74808270  .00360366  60535-4  10593-2 0  9993
2 54017  53.2332  47.7259 0006936 323.3047  36.7506 15.92159667  1714
FALCON 9 DEB            
1 54018U 22125BG  22287.80460522  .00399858  73476-4  10886-2 0  9996
2 54018  53.2278  47.3612 0009807 298.9003  61.1042 15.93559300  1729
FALCON 9 DEB            
1 54019U 22125BH  22288.05396445  .00326868  52472-4  88006-3 0  9991
2 54019  53.2265  46.0695 0007545 285.3202  74.6993 15.93836229  1767
CENTISPACE-1 S5         
1 54020U 22126A   22288.13629999  .00006112  00000+0  13604-2 0  9999
2 54020  55.0001 156.7606 0012646 311.1723  48.8184 14.57924529  1116
CENTISPACE-1 S6         
1 54021U 22126B   22288.20363649  .00014657  00000+0  31852-2 0  9993
2 54021  55.0072 156.4765 0015185 315.2681  44.8293 14.58170583  1118
CZ-11H R/B              
1 54022U 22126C   22287.96101262  .00030505  00000+0  53104-3 0  9992
2 54022  56.1484 155.9704 0339708 326.5340  31.4626 15.06050147  1111
GAZELLE                 
1 54023U 22127A   22287.89290127 -.00000043  00000+0  00000+0 0  9993
2 54023  98.3144 287.0780 0012227 277.6923  82.2852 14.41642030  1033
ELECTRON KICK STAGE R/B 
1 54024U 22127B   22287.94740449  .00005652  00000+0  76466-3 0  9990
2 54024  98.2931 287.4587 0141561 359.3557   0.7446 14.72647892  1052
ELECTRON R/B            
1 54025U 22127C   22287.94327007  .00136489  60348-5  13843-2 0  9991
2 54025  98.3333 288.0340 0347443 194.2134 164.9136 15.15994148  1098
2022-128A               
1 54026U 22128A   22287.80000000 -.00000201  00000+0  00000+0 0  9993
2 54026  26.5320 192.1410 7254180 180.3880  46.4950  2.27885768   258
2022-128B               
1 54027U 22128B   22287.70000000 -.00000102  00000+0  00000+0 0  9993
2 54027  26.5810 191.7400 7060108 180.5950 346.6400  2.52590896   227
2022-128C               
1 54028U 22128C   22287.68234356  .00005318  00000+0  14354-2 0  9997
2 54028  26.8450 190.8308 5936169 182.5746 175.9852  4.11941321   235
ASO-S                   
1 54029U 22129A   22288.17220775 -.00001966  00000+0 -48719-3 0  9994
2 54029  98.2674 293.5805 0013601 248.3918 111.5934 14.50848208   897
CZ-2D R/B               
1 54030U 22129B   22287.94934071  .00000420  00000+0  10823-3 0  9998
2 54030  98.1945 293.2787 0019626  97.9051 262.4377 14.54800673   877
COSMOS 2559 [GLONASS-K] 
1 54031U 22130A   22287.39487059 -.00000090  00000+0  00000+0 0  9995
2 54031  64.7801   1.5135 0002004 330.3772  13.5624  2.12836767    88
FREGAT R/B              
1 54032U 22130B   22284.14949806 -.00000087  00000+0  00000+0 0  9995
2 54032  64.8932   1.6824 0035362 228.7163 143.8243  2.11225083    06
ANGOSAT 2               
1 54033U 22131A   22287.96853317  .00000046  00000+0  00000+0 0  9995
2 54033   0.0282 343.2286 0001831 106.4218   0.1604  0.98860320    32
HJ-2E                   
1 54035U 22132A   22288.09826026  .00013287  00000+0  55607-3 0  9998
2 54035  97.3947 293.6235 0011836 264.8441  95.1450 15.23628724   325
2022-132B               
1 54036U 22132B   22288.16497646  .00147500  00000+0  47077-2 0  9996
2 54036  97.3563 293.7093 0035642 319.5552 104.4315 15.31276597   336
2022-132C               
1 54037U 22132C   22288.17913324  .00015991  00000+0  15593-2 0  9990
2 54037  97.6508 293.5822 0189304 164.3295 290.9857 14.79978355   325
2022-132D               
1 54038U 22132D   22288.11280433  .00045182  00000+0  22452-2 0  9990
2 54038  97.5876 293.6210 0099718 226.2317 133.0675 15.13177521   327
CZ-2C R/B               
1 54039U 22132E   22288.19845492  .00005410  00000+0  28046-3 0  9997
2 54039  97.2512 293.4761 0047094 203.3832 281.3466 15.15595963   331
2022-132F               
1 54040U 22132F   22288.12188849  .00036728  00000+0  20704-2 0  9996
2 54040  97.1589 293.5744 0123021 216.5282 142.7549 15.06782223   326
2022-132G               
1 54041U 22132G   22288.08153436  .00018194  00000+0  15811-2 0  9996
2 54041  97.1915 293.4832 0151386 161.9476 198.7201 14.88535705   315
2022-133A               
1 54042U 22133A   22288.12559079 -.00000038  00000+0  00000+0 0  9996
2 54042  34.9976 284.7153 0008868 271.7830 182.4291 15.24381555    54
2022-133B               
1 54043U 22133B   22288.12577016 -.00000038  00000+0  00000+0 0  9998
2 54043  34.9945 284.6834 0009184 281.9906 173.4947 15.24625313    56
2022-133C               
1 54044U 22133C   22288.12577579 -.00000038  00000+0  00000+0 0  9993
2 54044  34.9966 284.6950 0009565 279.9110 175.6738 15.24688199    59
2022-133D               
1 54045U 22133D   22288.12569774 -.00000038  00000+0  00000+0 0  9992
2 54045  34.9935 284.6905 0009258 287.6985 167.7206 15.24922724    58
2022-133E               
1 54046U 22133E   22288.18513278 -.00000037  00000+0  00000+0 0  9996
2 54046  34.9934 284.3149 0008025 266.4706 154.8338 15.24231652    58
NOAA 1 [-]              
1 04793U 70106A   22287.42174679 -.00000036  00000+0  44375-4 0  9994
2 04793 101.5436 348.1769 0031936  91.0792 280.1648 12.54008134372507
